NORAD_CAT_ID,OBJECT_NAME,OBJECT_TYPE,EPOCH,MEAN_MOTION,ECCENTRICITY,INCLINATION,RA_OF_ASC_NODE,ARG_OF_PERICENTER,MEAN_ANOMALY,BSTAR,MEAN_MOTION_DOT,MEAN_MOTION_DDOT,TLE_LINE0,TLE_LINE1,TLE_LINE2,SEMIMAJOR_AXIS,PERIOD,APOGEE,PERIGEE,DECAYED
55778.0,STARLINK-5816,PAYLOAD,2024-05-26 23:00:14,14.98332432,0.0002615,70.0003,67.5609,261.8736,98.2126,0.00010098,1.112e-05,0.0,0 STARLINK-5816,1 55778U 23028AP  24147.95849856  .00001112  00000-0  10098-3 0  9995,2 55778  70.0003  67.5609 0002615 261.8736  98.2126 14.98332432 68915,6950.185,96.107,573.868,570.233,0.0
55778.0,STARLINK-5816,PAYLOAD,2024-05-27 11:49:17,14.98352122,0.0002897,70.0001,66.2142,261.2128,98.8703,-6.6418e-05,-8.86e-06,0.0,0 STARLINK-5816,1 55778U 23028AP  24148.49256569 -.00000886  00000-0 -66418-4 0  9995,2 55778  70.0001  66.2142 0002897 261.2128  98.8703 14.98352122 68995,6950.124,96.106,574.003,569.976,0.0
55778.0,STARLINK-5816,PAYLOAD,2024-05-27 21:26:07,14.98321187,0.00025,70.0006,65.2044,259.6005,100.4873,0.00014444,1.63e-05,0.0,0 STARLINK-5816,1 55778U 23028AP  24148.89314329  .00001630  00000-0  14444-3 0  9995,2 55778  70.0006  65.2044 0002500 259.6005 100.4873 14.98321187 69059,6950.22,96.108,573.823,570.348,0.0
55778.0,STARLINK-5816,PAYLOAD,2024-05-28 11:51:20,14.98323874,0.0002737,70.0004,63.6873,276.1428,83.9419,0.00015033,1.701e-05,0.0,0 STARLINK-5816,1 55778U 23028AP  24149.49398286  .00001701  00000-0  15033-3 0  9990,2 55778  70.0004  63.6873 0002737 276.1428  83.9419 14.98323874 69140,6950.212,96.107,573.979,570.175,0.0
55778.0,STARLINK-5816,PAYLOAD,2024-05-28 21:28:08,14.98334957,0.0002842,70.0001,62.6787,267.8021,92.2812,-4.8402e-05,-6.71e-06,0.0,0 STARLINK-5816,1 55778U 23028AP  24149.89454089 -.00000671  00000-0 -48402-4 0  9992,2 55778  70.0001  62.6787 0002842 267.8021  92.2812 14.98334957 69204,6950.178,96.107,574.018,570.067,0.0
55778.0,STARLINK-5816,PAYLOAD,2024-05-29 03:52:40,14.98335452,0.0002644,70.0006,62.0049,265.2998,94.7859,1.0003e-05,2.6e-07,0.0,0 STARLINK-5816,1 55778U 23028AP  24150.16157833  .00000026  00000-0  10003-4 0  9999,2 55778  70.0006  62.0049 0002644 265.2998  94.7859 14.98335452 69242,6950.176,96.107,573.879,570.203,0.0
55778.0,STARLINK-5816,PAYLOAD,2024-05-29 21:30:09,14.9833073,0.0002813,70.0006,60.1547,269.5499,90.5338,6.0767e-05,6.32e-06,0.0,0 STARLINK-5816,1 55778U 23028AP  24150.89593982  .00000632  00000-0  60767-4 0  9993,2 55778  70.0006  60.1547 0002813 269.5499  90.5338 14.98330730 69357,6950.191,96.107,574.011,570.101,0.0
55778.0,STARLINK-5816,PAYLOAD,2024-05-30 03:54:41,14.98333903,0.0002796,70.0005,59.481,271.1016,88.9823,9.2657e-05,1.013e-05,0.0,0 STARLINK-5816,1 55778U 23028AP  24151.16297685  .00001013  00000-0  92657-4 0  9992,2 55778  70.0005  59.4810 0002796 271.1016  88.9823 14.98333903 69393,6950.181,96.107,573.989,570.103,0.0
55778.0,STARLINK-5816,PAYLOAD,2024-05-30 21:32:09,14.9833538,0.0002751,70.0007,57.6293,271.4786,88.6057,7.5013e-05,8.02e-06,0.0,0 STARLINK-5816,1 55778U 23028AP  24151.89733542  .00000802  00000-0  75013-4 0  9991,2 55778  70.0007  57.6293 0002751 271.4786  88.6057 14.98335380 69508,6950.176,96.107,573.953,570.129,0.0
55778.0,STARLINK-5816,PAYLOAD,2024-05-31 03:56:41,14.98337534,0.0002712,70.0009,56.9564,271.3105,88.7744,9.7563e-05,1.072e-05,0.0,0 STARLINK-5816,1 55778U 23028AP  24152.16437270  .00001072  00000-0  97563-4 0  9995,2 55778  70.0009  56.9564 0002712 271.3105  88.7744 14.98337534 69545,6950.17,96.107,573.919,570.15,0.0
55778.0,STARLINK-5816,PAYLOAD,2024-05-31 19:58:03,14.98329047,0.0002659,70.0011,55.2728,274.3069,85.7786,-1.7118e-05,-2.97e-06,0.0,0 STARLINK-5816,1 55778U 23028AP  24152.83198000 -.00000297  00000-0 -17118-4 0  9992,2 55778  70.0011  55.2728 0002659 274.3069  85.7786 14.98329047 69648,6950.196,96.107,573.909,570.213,0.0
55778.0,STARLINK-5816,PAYLOAD,2024-05-31 21:34:11,14.98329148,0.0002657,70.0011,55.1045,274.3636,85.722,-1.6938e-05,-2.95e-06,0.0,0 STARLINK-5816,1 55778U 23028AP  24152.89873990 -.00000295  00000-0 -16938-4 0  9993,2 55778  70.0011  55.1045 0002657 274.3636  85.7220 14.98329148 69653,6950.196,96.107,573.907,570.214,0.0
55778.0,STARLINK-5816,PAYLOAD,2024-06-01 10:23:15,14.98329631,0.0002626,70.0013,53.758,274.5651,85.5208,-4.9087e-06,-1.51e-06,0.0,0 STARLINK-5816,1 55778U 23028AP  24153.43281936 -.00000151  00000-0 -49087-5 0  9990,2 55778  70.0013  53.7580 0002626 274.5651  85.5208 14.98329631 69738,6950.194,96.107,573.884,570.234,0.0
55778.0,STARLINK-5816,PAYLOAD,2024-06-01 21:36:11,14.98332674,0.0002631,70.0012,52.5798,271.3826,88.7031,4.3524e-06,-4.1e-07,0.0,0 STARLINK-5816,1 55778U 23028AP  24153.90013668 -.00000041  00000-0  43524-5 0  9994,2 55778  70.0012  52.5798 0002631 271.3826  88.7031 14.98332674 69808,6950.185,96.107,573.878,570.221,0.0
55778.0,STARLINK-5816,PAYLOAD,2024-06-02 10:25:16,14.98332402,0.0002739,70.0007,51.2336,270.2094,89.8751,-3.3452e-05,-4.92e-06,0.0,0 STARLINK-5816,1 55778U 23028AP  24154.43421711 -.00000492  00000-0 -33452-4 0  9994,2 55778  70.0007  51.2336 0002739 270.2094  89.8751 14.98332402 69888,6950.185,96.107,573.954,570.147,0.0
55778.0,STARLINK-5816,PAYLOAD,2024-06-02 23:14:20,14.98344235,0.0002819,70.0006,49.8871,271.7422,88.3414,-0.0001714,-2.138e-05,0.0,0 STARLINK-5816,1 55778U 23028AP  24154.96829322 -.00002138  00000-0 -17140-3 0  9996,2 55778  70.0006  49.8871 0002819 271.7422  88.3414 14.98344235 69960,6950.149,96.106,573.973,570.055,0.0
55778.0,STARLINK-5816,PAYLOAD,2024-06-03 02:26:36,14.98330418,0.0002848,70.0007,49.5504,270.2839,89.7993,6.646e-05,7e-06,0.0,0 STARLINK-5816,1 55778U 23028AP  24155.10181625  .00000700  00000-0  66460-4 0  9991,2 55778  70.0007  49.5504 0002848 270.2839  89.7993 14.98330418 69986,6950.192,96.107,574.036,570.077,0.0
55778.0,STARLINK-5816,PAYLOAD,2024-06-03 10:27:17,14.98330453,0.0002803,70.0007,48.709,262.0852,97.9989,5.5591e-05,5.7e-06,0.0,0 STARLINK-5816,1 55778U 23028AP  24155.43561668  .00000570  00000-0  55591-4 0  9994,2 55778  70.0007  48.7090 0002803 262.0852  97.9989 14.98330453 70035,6950.191,96.107,574.005,570.108,0.0
55778.0,STARLINK-5816,PAYLOAD,2024-06-03 23:16:21,14.9833588,0.0002796,70.0005,47.3603,264.6808,95.4032,0.00010174,1.121e-05,0.0,0 STARLINK-5816,1 55778U 23028AP  24155.96969111  .00001121  00000-0  10174-3 0  9997,2 55778  70.0005  47.3603 0002796 264.6808  95.4032 14.98335880 70118,6950.175,96.107,573.983,570.096,0.0
55778.0,STARLINK-5816,PAYLOAD,2024-06-04 02:28:37,14.98326421,0.0002876,70.0014,47.0234,265.9873,94.0957,0.0002769,3.212e-05,0.0,0 STARLINK-5816,1 55778U 23028AP  24156.10321331  .00003212  00000-0  27690-3 0  9994,2 55778  70.0014  47.0234 0002876 265.9873  94.0957 14.98326421 70134,6950.204,96.107,574.068,570.07,0.0
55778.0,STARLINK-5816,PAYLOAD,2024-06-04 10:29:17,14.98334012,0.0002876,70.0015,46.1814,257.9105,102.1732,5.1771e-05,5.25e-06,0.0,0 STARLINK-5816,1 55778U 23028AP  24156.43701213  .00000525  00000-0  51771-4 0  9993,2 55778  70.0015  46.1814 0002876 257.9105 102.1732 14.98334012 70180,6950.18,96.107,574.044,570.047,0.0
55778.0,STARLINK-5816,PAYLOAD,2024-06-04 23:18:22,14.98335105,0.0002876,70.0017,44.8367,267.8222,92.2608,5.1817e-05,5.25e-06,0.0,0 STARLINK-5816,1 55778U 23028AP  24156.97109141  .00000525  00000-0  51817-4 0  9995,2 55778  70.0017  44.8367 0002876 267.8222  92.2608 14.98335105 70264,6950.177,96.107,574.041,570.043,0.0
55778.0,STARLINK-5816,PAYLOAD,2024-06-05 02:30:38,14.98335247,0.0002915,70.0012,44.5,268.5491,91.5334,5.0369e-05,5.08e-06,0.0,0 STARLINK-5816,1 55778U 23028AP  24157.10461088  .00000508  00000-0  50369-4 0  9994,2 55778  70.0012  44.5000 0002915 268.5491  91.5334 14.98335247 70287,6950.177,96.107,574.068,570.016,0.0
55778.0,STARLINK-5816,PAYLOAD,2024-06-05 23:20:23,14.98335695,0.0002864,70.0019,42.3117,271.2655,88.8176,-0.0001577,-1.974e-05,0.0,0 STARLINK-5816,1 55778U 23028AP  24157.97249561 -.00001974  00000-0 -15770-3 0  9995,2 55778  70.0019  42.3117 0002864 271.2655  88.8176 14.98335695 70410,6950.175,96.107,574.031,570.05,0.0
55778.0,STARLINK-5816,PAYLOAD,2024-06-06 02:32:40,14.98302398,0.0002673,70.0023,41.9749,273.7325,86.3528,0.00046775,5.488e-05,0.0,0 STARLINK-5816,1 55778U 23028AP  24158.10602422  .00005488  00000-0  46775-3 0  9991,2 55778  70.0023  41.9749 0002673 273.7325  86.3528 14.98302398 70430,6950.278,96.109,574.001,570.285,0.0
55778.0,STARLINK-5816,PAYLOAD,2024-06-06 08:57:11,14.98331214,0.0002869,70.002,41.3018,270.8092,89.2739,3.3164e-05,3.03e-06,0.0,0 STARLINK-5816,1 55778U 23028AP  24158.37305380  .00000303  00000-0  33164-4 0  9993,2 55778  70.0020  41.3018 0002869 270.8092  89.2739 14.98331214 70475,6950.189,96.107,574.048,570.06,0.0
55778.0,STARLINK-5816,PAYLOAD,2024-06-07 08:59:12,14.98329934,0.0002843,70.0015,38.7765,272.8439,87.2395,4.9553e-05,4.98e-06,0.0,0 STARLINK-5816,1 55778U 23028AP  24159.37445281  .00000498  00000-0  49553-4 0  9993,2 55778  70.0015  38.7765 0002843 272.8439  87.2395 14.98329934 70626,6950.193,96.107,574.034,570.082,0.0
55778.0,STARLINK-5816,PAYLOAD,2024-06-07 15:23:45,14.98327063,0.000281,70.0009,38.1033,273.6728,86.4109,1.2131e-05,5.2e-07,0.0,0 STARLINK-5816,1 55778U 23028AP  24159.64149681  .00000052  00000-0  12131-4 0  9996,2 55778  70.0009  38.1033 0002810 273.6728  86.4109 14.98327063 70664,6950.202,96.107,574.02,570.114,0.0
55778.0,STARLINK-5816,PAYLOAD,2024-06-07 21:48:17,14.98328604,0.0002592,69.9973,37.4301,270.6346,89.4516,0.00011179,1.241e-05,0.0,0 STARLINK-5816,1 55778U 23028AP  24159.90853291  .00001241  00000-0  11179-3 0  9995,2 55778  69.9973  37.4301 0002592 270.6346  89.4516 14.98328604 70703,6950.197,96.107,573.864,570.261,0.0
55778.0,STARLINK-5816,PAYLOAD,2024-06-08 09:01:14,14.98328858,0.0002813,70.0015,36.2502,276.1171,83.9668,-2.6155e-05,-4.05e-06,0.0,0 STARLINK-5816,1 55778U 23028AP  24160.37585658 -.00000405  00000-0 -26155-4 0  9991,2 55778  70.0015  36.2502 0002813 276.1171  83.9668 14.98328858 70771,6950.196,96.107,574.017,570.106,0.0
